CSS (TIANHE)            
1 48274U 21035A   23227.25535342  .00025319  00000+0  29992-3 0  9994
2 48274  41.4736 156.8707 0008156 160.0727 200.0432 15.60615277131061
